{"type": "FeatureCollection", "name": "circonscriptions_police_95", "features": [{"type": "Feature", "properties": {"idPolice": 4, "nom": "GONESSE", "comBase": "95277"}, "geometry": {"type": "MultiPolygon", "coordinates": [[[[2.438198, 49.028721], [2.440794, 49.028931], [2.441009, 49.034355], [2.446627, 49.037168], [2.446832, 49.037214], [2.446837, 49.037978], [2.448338, 49.038273], [2.452261, 49.038507], [2.453665, 49.039017], [2.454659, 49.038104], [2.455721, 49.038585], [2.455998, 49.038272], [2.459581, 49.039574], [2.457983, 49.040673], [2.461282, 49.042998], [2.459459, 49.044708], [2.459456, 49.045004], [2.460344, 49.045143], [2.46133, 49.045004], [2.462766, 49.045073], [2.463973, 49.04471], [2.467284, 49.043331], [2.467719, 49.043612], [2.468821, 49.042816], [2.468714, 49.042528], [2.470649, 49.041907], [2.470787, 49.041818], [2.471265, 49.041865], [2.471877, 49.042227], [2.47201, 49.042623], [2.472283, 49.042625], [2.473853, 49.041589], [2.474127, 49.04159], [2.474331, 49.041725], [2.474536, 49.041681], [2.475102, 49.041189], [2.475443, 49.041317], [2.475716, 49.041318], [2.477142, 49.039643], [2.479797, 49.038072], [2.479411, 49.037072], [2.479796, 49.036858], [2.479389, 49.036541], [2.479941, 49.035959], [2.480343, 49.035511], [2.479803, 49.03479], [2.479929, 49.03452], [2.480687, 49.033849], [2.481636, 49.03335], [2.481434, 49.033088], [2.484687, 49.03187], [2.485004, 49.03162], [2.485198, 49.031297], [2.484876, 49.030666], [2.485219, 49.030551], [2.4846, 49.029559], [2.484731, 49.028831], [2.484529, 49.028435], [2.483907, 49.027731], [2.484882, 49.027393], [2.485454, 49.027593], [2.485618, 49.027621], [2.486015, 49.027506], [2.485586, 49.026695], [2.485098, 49.026288], [2.485167, 49.026189], [2.48551, 49.026101], [2.485583, 49.025652], [2.485857, 49.025563], [2.48851, 49.025556], [2.492142, 49.026003], [2.492209, 49.026183], [2.492209, 49.026228], [2.493779, 49.026451], [2.494189, 49.026453], [2.493642, 49.025056], [2.498574, 49.024106], [2.49402, 49.017109], [2.493336, 49.015757], [2.491136, 49.010047], [2.489083, 49.010362], [2.485194, 49.011002], [2.478561, 49.011414], [2.478349, 49.010694], [2.477666, 49.010691], [2.4776, 49.010376], [2.477398, 49.010105], [2.475142, 49.010203], [2.475075, 49.010068], [2.472614, 49.010066], [2.469735, 49.008273], [2.469529, 49.008317], [2.469539, 49.008722], [2.46974, 49.009127], [2.469875, 49.009218], [2.469873, 49.009398], [2.468859, 49.009672], [2.467287, 49.009674], [2.466462, 49.008861], [2.466325, 49.00886], [2.465433, 49.009225], [2.46195, 49.010262], [2.461471, 49.010304], [2.461407, 49.009899], [2.461274, 49.009539], [2.4601, 49.009408], [2.457502, 49.009459], [2.455243, 49.009818], [2.449724, 49.010809], [2.447325, 49.011445], [2.445553, 49.012219], [2.444456, 49.012529], [2.443238, 49.012649], [2.443168, 49.012802], [2.443161, 49.013476], [2.443033, 49.01397], [2.443236, 49.014106], [2.443913, 49.014783], [2.44406, 49.015054], [2.442558, 49.018689], [2.440869, 49.023231], [2.438198, 49.028721]]], [[[2.416535, 48.998503], [2.416577, 48.999664], [2.419, 48.999262], [2.419399, 49.001503], [2.418837, 49.001653], [2.41896, 49.002921], [2.420503, 49.003028], [2.420166, 49.005022], [2.421761, 49.00664], [2.423949, 49.008988], [2.424219, 49.009349], [2.425792, 49.010436], [2.426268, 49.010663], [2.428263, 49.012003], [2.428397, 49.012229], [2.428328, 49.012318], [2.425601, 49.012863], [2.42471, 49.013092], [2.424775, 49.013452], [2.425124, 49.013984], [2.425395, 49.014211], [2.42573, 49.014842], [2.426072, 49.014843], [2.4271, 49.014524], [2.427373, 49.014571], [2.427922, 49.015688], [2.428135, 49.016184], [2.428395, 49.01614], [2.430043, 49.015465], [2.430716, 49.015198], [2.430866, 49.015244], [2.431203, 49.015641], [2.431682, 49.015598], [2.433245, 49.015147], [2.435641, 49.014835], [2.436462, 49.014785], [2.436597, 49.01492], [2.43776, 49.014872], [2.438787, 49.014741], [2.438845, 49.014427], [2.440754, 49.013528], [2.442473, 49.012583], [2.442748, 49.012494], [2.443238, 49.012649], [2.443227, 49.012442], [2.443979, 49.011133], [2.446035, 49.010639], [2.446296, 49.010505], [2.446913, 49.010364], [2.446913, 49.010274], [2.444996, 49.006821], [2.444377, 49.005874], [2.444244, 49.005514], [2.444381, 49.00547], [2.450248, 49.003851], [2.452359, 49.003348], [2.454883, 49.002451], [2.457348, 49.001995], [2.45981, 49.001817], [2.463228, 49.00168], [2.465145, 49.001365], [2.465214, 49.001275], [2.464258, 48.999823], [2.463569, 48.99911], [2.462545, 48.997711], [2.461916, 48.997717], [2.461428, 48.99731], [2.46143, 48.997176], [2.462814, 48.996768], [2.463224, 48.996725], [2.464106, 48.997349], [2.464379, 48.997396], [2.466761, 48.994385], [2.467238, 48.994522], [2.46731, 48.995466], [2.467456, 48.995872], [2.468276, 48.995866], [2.469084, 48.995735], [2.469977, 48.99528], [2.471678, 48.994604], [2.473048, 48.994287], [2.474132, 48.993842], [2.475637, 48.993615], [2.477005, 48.993522], [2.477209, 48.993613], [2.478711, 48.993745], [2.478982, 48.993971], [2.479805, 48.995], [2.483196, 48.998917], [2.483493, 48.999251], [2.48371, 48.999468], [2.484241, 48.999677], [2.484925, 48.999536], [2.485295, 48.999483], [2.485487, 48.999412], [2.485761, 48.999333], [2.483998, 48.996564], [2.483999, 48.996519], [2.4889, 48.995659], [2.488553, 48.993419], [2.488006, 48.990674], [2.488212, 48.99054], [2.488828, 48.990452], [2.489853, 48.990403], [2.491415, 48.989951], [2.492372, 48.98991], [2.493329, 48.989905], [2.494014, 48.989638], [2.494827, 48.988949], [2.495924, 48.988549], [2.498786, 48.987914], [2.500075, 48.987415], [2.500418, 48.987282], [2.503975, 48.986784], [2.503977, 48.986604], [2.502875, 48.98472], [2.502178, 48.983279], [2.501357, 48.982025], [2.501156, 48.981575], [2.500051, 48.980006], [2.500053, 48.979826], [2.501882, 48.978538], [2.500401, 48.977705], [2.502147, 48.97657], [2.500299, 48.975573], [2.50052, 48.975287], [2.495851, 48.975006], [2.498088, 48.973945], [2.496009, 48.972723], [2.495802, 48.972947], [2.495597, 48.972991], [2.49307, 48.974428], [2.492741, 48.974525], [2.488294, 48.971161], [2.488281, 48.971026], [2.488555, 48.970929], [2.490133, 48.970252], [2.490134, 48.970162], [2.486829, 48.967288], [2.48587, 48.967653], [2.485061, 48.967883], [2.483814, 48.96831], [2.481439, 48.969585], [2.480753, 48.969816], [2.478837, 48.967497], [2.478549, 48.967603], [2.477807, 48.96671], [2.47571, 48.967447], [2.475024, 48.967759], [2.474686, 48.967443], [2.47042, 48.9638], [2.469431, 48.963049], [2.468207, 48.963844], [2.467328, 48.964335], [2.466192, 48.963278], [2.463317, 48.959991], [2.463195, 48.959928], [2.463086, 48.959874], [2.462366, 48.959493], [2.461756, 48.959049], [2.460861, 48.958461], [2.460659, 48.958145], [2.460067, 48.95602], [2.45949, 48.955046], [2.459285, 48.955099], [2.456834, 48.955682], [2.456014, 48.955768], [2.453695, 48.955551], [2.45221, 48.955229], [2.451623, 48.955163], [2.450342, 48.954924], [2.449453, 48.955064], [2.448823, 48.955286], [2.448024, 48.955947], [2.44752, 48.955801], [2.445215, 48.956825], [2.445067, 48.956617], [2.444738, 48.956723], [2.442897, 48.956544], [2.441163, 48.956482], [2.439312, 48.95597], [2.437251, 48.955807], [2.436558, 48.955534], [2.435906, 48.95518], [2.435507, 48.955511], [2.43456, 48.95593], [2.433749, 48.956465], [2.433074, 48.956966], [2.432591, 48.957458], [2.432192, 48.957681], [2.431576, 48.957813], [2.430892, 48.957954], [2.429795, 48.958353], [2.428162, 48.959038], [2.427259, 48.959222], [2.426644, 48.959264], [2.425416, 48.959222], [2.423167, 48.958816], [2.42081, 48.958319], [2.41885, 48.957752], [2.418262, 48.959053], [2.417581, 48.960102], [2.41714, 48.960423], [2.417051, 48.961097], [2.417222, 48.961647], [2.417097, 48.961835], [2.419347, 48.962098], [2.418929, 48.962896], [2.418168, 48.963756], [2.417983, 48.964447], [2.417819, 48.964437], [2.417701, 48.965201], [2.417858, 48.965876], [2.418783, 48.967383], [2.419051, 48.96786], [2.418749, 48.967994], [2.417747, 48.968403], [2.416924, 48.96874], [2.416634, 48.969], [2.416988, 48.969136], [2.417245, 48.969371], [2.417052, 48.969496], [2.417145, 48.969722], [2.417224, 48.969992], [2.417497, 48.97002], [2.417867, 48.969923], [2.418682, 48.970278], [2.419387, 48.970803], [2.419508, 48.970983], [2.419728, 48.970804], [2.420124, 48.97086], [2.420174, 48.971265], [2.420404, 48.97141], [2.420538, 48.971707], [2.421125, 48.971755], [2.421162, 48.97207], [2.422873, 48.972951], [2.422102, 48.973532], [2.424144, 48.97418], [2.424738, 48.974794], [2.424817, 48.975019], [2.424091, 48.975232], [2.422494, 48.976357], [2.421386, 48.976496], [2.42101, 48.977114], [2.418419, 48.977911], [2.417874, 48.977845], [2.417652, 48.978096], [2.416432, 48.978459], [2.417548, 48.980128], [2.415396, 48.980711], [2.412584, 48.980562], [2.411598, 48.980746], [2.410281, 48.981252], [2.409391, 48.981401], [2.407576, 48.982417], [2.406643, 48.982709], [2.404058, 48.982993], [2.40374, 48.982164], [2.401411, 48.982656], [2.40081, 48.982653], [2.401623, 48.98442], [2.401964, 48.985725], [2.402179, 48.986032], [2.40251, 48.986888], [2.403615, 48.988279], [2.40471, 48.989318], [2.405128, 48.989806], [2.405331, 48.989942], [2.405742, 48.989899], [2.406152, 48.989811], [2.406626, 48.990254], [2.407447, 48.991292], [2.408138, 48.991871], [2.408137, 48.991961], [2.409141, 48.993719], [2.410014, 48.993867], [2.411562, 48.993578], [2.412162, 48.993716], [2.413705, 48.99376], [2.413816, 48.994875], [2.415686, 48.995019], [2.414216, 48.998105], [2.416525, 48.998207], [2.416535, 48.998503]]]]}}, {"type": "Feature", "properties": {"idPolice": 2, "nom": "ARGENTEUIL", "comBase": "95018"}, "geometry": {"type": "MultiPolygon", "coordinates": [[[[2.178155, 48.963511], [2.178296, 48.964141], [2.178839, 48.965215], [2.179174, 48.965577], [2.179253, 48.965803], [2.179045, 48.965981], [2.177056, 48.96737], [2.176846, 48.967684], [2.176852, 48.969033], [2.176366, 48.969569], [2.176097, 48.97016], [2.175552, 48.970921], [2.175542, 48.972405], [2.174782, 48.973838], [2.173278, 48.975636], [2.171908, 48.976759], [2.171503, 48.97726], [2.170951, 48.977661], [2.170742, 48.977884], [2.170206, 48.978114], [2.169378, 48.978603], [2.168905, 48.97914], [2.166632, 48.981165], [2.166354, 48.981478], [2.168528, 48.983094], [2.16873, 48.983275], [2.172018, 48.985258], [2.173651, 48.986519], [2.173924, 48.986566], [2.174609, 48.986427], [2.175773, 48.9863], [2.1772, 48.985896], [2.178843, 48.985674], [2.181582, 48.984416], [2.181719, 48.984371], [2.181786, 48.981854], [2.182755, 48.980197], [2.183438, 48.979338], [2.183982, 48.979522], [2.184458, 48.97966], [2.1848, 48.979608], [2.185146, 48.979341], [2.18542, 48.979298], [2.18658, 48.979342], [2.187056, 48.97948], [2.187945, 48.979441], [2.188435, 48.979525], [2.189186, 48.979575], [2.189727, 48.97993], [2.189588, 48.980063], [2.188004, 48.980871], [2.187398, 48.981236], [2.187531, 48.981461], [2.189105, 48.983037], [2.189086, 48.983351], [2.190734, 48.983677], [2.190833, 48.983498], [2.191228, 48.983564], [2.191041, 48.984183], [2.191228, 48.984454], [2.192044, 48.984657], [2.193138, 48.984638], [2.193121, 48.984799], [2.194148, 48.984671], [2.194863, 48.985279], [2.197718, 48.985298], [2.19853, 48.985816], [2.199069, 48.986323], [2.198556, 48.98766], [2.199678, 48.987586], [2.200288, 48.98786], [2.200568, 48.988311], [2.201246, 48.990474], [2.201848, 48.990424], [2.204245, 48.990026], [2.204124, 48.98633], [2.203208, 48.985451], [2.203508, 48.984662], [2.203309, 48.98422], [2.204121, 48.983857], [2.205286, 48.983595], [2.206518, 48.983459], [2.20815, 48.983056], [2.20947, 48.982516], [2.209607, 48.982517], [2.209941, 48.982969], [2.210283, 48.982926], [2.210766, 48.982651], [2.210896, 48.982202], [2.211514, 48.981936], [2.211994, 48.981849], [2.213156, 48.981803], [2.214722, 48.98122], [2.215479, 48.980865], [2.215754, 48.980768], [2.21787, 48.979963], [2.21889, 48.979341], [2.218624, 48.978889], [2.218554, 48.978079], [2.219242, 48.977715], [2.219169, 48.977139], [2.21897, 48.976733], [2.219034, 48.976149], [2.220135, 48.975563], [2.221297, 48.975561], [2.222594, 48.975615], [2.223607, 48.975477], [2.223882, 48.975299], [2.224566, 48.974351], [2.225466, 48.973547], [2.225738, 48.973639], [2.226415, 48.974039], [2.226826, 48.973951], [2.227788, 48.973553], [2.228754, 48.972876], [2.227426, 48.972202], [2.227156, 48.971984], [2.226258, 48.971754], [2.225736, 48.971022], [2.227187, 48.970797], [2.229103, 48.970576], [2.230366, 48.970134], [2.230306, 48.969522], [2.231349, 48.968333], [2.23163, 48.96775], [2.232791, 48.967794], [2.235789, 48.968245], [2.236541, 48.968204], [2.238244, 48.967577], [2.238656, 48.967391], [2.239478, 48.967216], [2.240368, 48.967078], [2.241247, 48.966768], [2.242341, 48.966631], [2.242779, 48.966571], [2.243494, 48.967214], [2.244043, 48.96702], [2.245371, 48.966776], [2.245906, 48.966672], [2.245893, 48.966591], [2.249421, 48.965336], [2.248372, 48.964214], [2.248375, 48.964035], [2.248978, 48.96385], [2.251234, 48.96372], [2.255331, 48.963718], [2.25704, 48.963585], [2.257793, 48.963455], [2.259009, 48.963453], [2.260655, 48.96296], [2.261408, 48.96283], [2.262355, 48.962467], [2.263108, 48.962336], [2.263796, 48.961963], [2.264053, 48.962153], [2.264465, 48.96203], [2.265052, 48.962987], [2.265613, 48.962927], [2.265665, 48.96309], [2.267058, 48.963116], [2.267794, 48.963175], [2.267816, 48.963606], [2.26844, 48.963862], [2.271099, 48.964211], [2.271259, 48.9645], [2.273023, 48.964321], [2.273075, 48.963521], [2.274623, 48.964142], [2.276167, 48.964107], [2.276216, 48.963558], [2.276489, 48.963524], [2.276497, 48.962004], [2.278971, 48.961857], [2.278968, 48.961066], [2.279801, 48.961098], [2.279858, 48.959902], [2.279536, 48.959541], [2.282712, 48.959964], [2.282982, 48.959157], [2.28312, 48.959068], [2.288123, 48.959736], [2.288396, 48.959737], [2.288461, 48.958973], [2.288463, 48.958839], [2.288193, 48.958621], [2.288251, 48.958352], [2.289343, 48.956407], [2.290574, 48.954247], [2.291734, 48.952275], [2.292279, 48.951388], [2.29217, 48.95137], [2.290974, 48.950967], [2.288314, 48.950744], [2.284974, 48.950338], [2.281706, 48.949752], [2.278141, 48.948831], [2.273243, 48.947623], [2.268724, 48.94658], [2.264938, 48.944947], [2.260837, 48.943438], [2.258979, 48.942563], [2.25776, 48.941845], [2.255586, 48.940204], [2.252939, 48.939153], [2.247595, 48.936736], [2.245848, 48.93579], [2.244861, 48.935127], [2.243159, 48.933885], [2.241768, 48.932896], [2.240629, 48.932376], [2.236723, 48.930696], [2.231143, 48.927729], [2.229913, 48.926912], [2.22509, 48.923643], [2.222562, 48.92199], [2.220535, 48.920709], [2.220399, 48.920618], [2.220332, 48.920573], [2.218048, 48.919101], [2.217021, 48.918402], [2.215007, 48.917111], [2.213887, 48.916304], [2.212218, 48.914764], [2.211625, 48.914301], [2.209977, 48.913184], [2.208492, 48.912194], [2.207261, 48.911476], [2.20615, 48.910929], [2.200591, 48.908679], [2.198248, 48.912], [2.199547, 48.912674], [2.200239, 48.912958], [2.203696, 48.914393], [2.203706, 48.914618], [2.202067, 48.916549], [2.200485, 48.918247], [2.199191, 48.918967], [2.199664, 48.919285], [2.201975, 48.92073], [2.202734, 48.921095], [2.204905, 48.921901], [2.205461, 48.92213], [2.205389, 48.922354], [2.205247, 48.922713], [2.204901, 48.92307], [2.204353, 48.924065], [2.204364, 48.924245], [2.203942, 48.925051], [2.204146, 48.925143], [2.20443, 48.925279], [2.204428, 48.925414], [2.203674, 48.926533], [2.203265, 48.927385], [2.203876, 48.927614], [2.203872, 48.927839], [2.201757, 48.930531], [2.201002, 48.931651], [2.200649, 48.932458], [2.19996, 48.933766], [2.199754, 48.93381], [2.199617, 48.933854], [2.199139, 48.934804], [2.198927, 48.935252], [2.200771, 48.936065], [2.201868, 48.935703], [2.202005, 48.935704], [2.201937, 48.936558], [2.201667, 48.937231], [2.201455, 48.937724], [2.202819, 48.937778], [2.202758, 48.939126], [2.202678, 48.939845], [2.204451, 48.939974], [2.205201, 48.940069], [2.205608, 48.940207], [2.206027, 48.940515], [2.206093, 48.940659], [2.205768, 48.941359], [2.205276, 48.9414], [2.205341, 48.942498], [2.205677, 48.94375], [2.205664, 48.94456], [2.205876, 48.945011], [2.206012, 48.945056], [2.20601, 48.945146], [2.20621, 48.945507], [2.206206, 48.946631], [2.206145, 48.947081], [2.206078, 48.947899], [2.205929, 48.948662], [2.205858, 48.949741], [2.201413, 48.950224], [2.200731, 48.950183], [2.200529, 48.950002], [2.200316, 48.949641], [2.199634, 48.949645], [2.198485, 48.949773], [2.193163, 48.950447], [2.192412, 48.950442], [2.191321, 48.950354], [2.18975, 48.950397], [2.189681, 48.950442], [2.189678, 48.950622], [2.19002, 48.951469], [2.190152, 48.951785], [2.184413, 48.952906], [2.183467, 48.953125], [2.178259, 48.954375], [2.177917, 48.954382], [2.177232, 48.953657], [2.175743, 48.951993], [2.175539, 48.951946], [2.174505, 48.952533], [2.173553, 48.953156], [2.173141, 48.953297], [2.1741, 48.953969], [2.175112, 48.954731], [2.175796, 48.955545], [2.176077, 48.955907], [2.176891, 48.957072], [2.177834, 48.958779], [2.178105, 48.95977], [2.17824, 48.959878], [2.178239, 48.959932], [2.178024, 48.962332], [2.178155, 48.963511]]]]}}, {"type": "Feature", "properties": {"idPolice": 1, "nom": "CERGY", "comBase": "95127"}, "geometry": {"type": "MultiPolygon", "coordinates": [[[[1.991882, 49.021011], [1.988477, 49.020326], [1.985536, 49.019689], [1.982045, 49.019183], [1.979316, 49.018944], [1.97829, 49.018944], [1.974674, 49.019291], [1.974056, 49.01943], [1.97303, 49.02014], [1.972132, 49.020591], [1.970632, 49.021082], [1.969599, 49.021478], [1.969032, 49.021797], [1.967669, 49.022235], [1.966839, 49.022731], [1.966296, 49.023221], [1.965737, 49.023846], [1.965258, 49.024525], [1.964295, 49.025506], [1.964226, 49.02555], [1.964092, 49.025414], [1.963342, 49.024607], [1.962258, 49.024103], [1.961787, 49.023749], [1.961642, 49.023478], [1.961373, 49.023251], [1.960011, 49.022978], [1.959674, 49.02275], [1.95919, 49.02235], [1.958782, 49.022212], [1.957081, 49.021801], [1.955846, 49.022699], [1.955227, 49.023548], [1.955084, 49.023861], [1.954948, 49.024535], [1.954802, 49.024983], [1.954462, 49.025565], [1.954458, 49.025789], [1.956568, 49.026248], [1.95828, 49.026794], [1.958337, 49.027379], [1.958402, 49.027514], [1.959221, 49.028277], [1.959823, 49.028956], [1.960099, 49.029489], [1.960154, 49.031522], [1.96028, 49.032782], [1.96034, 49.033187], [1.960479, 49.033773], [1.96095, 49.034802], [1.963003, 49.034766], [1.963208, 49.034768], [1.973796, 49.034625], [1.973933, 49.034626], [1.974487, 49.034262], [1.975526, 49.034316], [1.975936, 49.034311], [1.97607, 49.034447], [1.97647, 49.03499], [1.977017, 49.035669], [1.980025, 49.035721], [1.98152, 49.0355], [1.983034, 49.035009], [1.983645, 49.034565], [1.98379, 49.034827], [1.984052, 49.035414], [1.984253, 49.036315], [1.98432, 49.037124], [1.983972, 49.037436], [1.98383, 49.037705], [1.984111, 49.038022], [1.985061, 49.039064], [1.985126, 49.039244], [1.984364, 49.039742], [1.984362, 49.039876], [1.984767, 49.040815], [1.985302, 49.042124], [1.985446, 49.042484], [1.986049, 49.043829], [1.986318, 49.044776], [1.986713, 49.046218], [1.986979, 49.047344], [1.987389, 49.048778], [1.987382, 49.049137], [1.987715, 49.050273], [1.988047, 49.050815], [1.988596, 49.051395], [1.989277, 49.052255], [1.990296, 49.053334], [1.990428, 49.05356], [1.99063, 49.053742], [1.991581, 49.054775], [1.992123, 49.055768], [1.992256, 49.055949], [1.992799, 49.056889], [1.993466, 49.058468], [1.994211, 49.060264], [1.994339, 49.060715], [1.993789, 49.06089], [1.992771, 49.06116], [1.992769, 49.061259], [1.992903, 49.061395], [1.994674, 49.063244], [1.994739, 49.063425], [1.994942, 49.063507], [1.996163, 49.064776], [1.996497, 49.065175], [1.9967, 49.065311], [1.998404, 49.06707], [1.998873, 49.067569], [1.999079, 49.06757], [1.99956, 49.06743], [2.004082, 49.065697], [2.004927, 49.0652], [2.00534, 49.065069], [2.006367, 49.065023], [2.007117, 49.065164], [2.008612, 49.065707], [2.008952, 49.0658], [2.009227, 49.065757], [2.009637, 49.065751], [2.009772, 49.065843], [2.009978, 49.065844], [2.010462, 49.065578], [2.010666, 49.065625], [2.011, 49.066068], [2.011208, 49.06661], [2.011476, 49.066927], [2.011962, 49.06729], [2.012561, 49.068185], [2.013244, 49.068955], [2.013658, 49.069498], [2.013033, 49.069997], [2.012819, 49.070445], [2.012892, 49.071614], [2.013091, 49.072695], [2.013075, 49.074223], [2.013271, 49.074711], [2.013616, 49.075298], [2.014909, 49.077143], [2.01504, 49.077459], [2.015862, 49.077375], [2.018058, 49.076341], [2.019153, 49.075631], [2.019705, 49.075402], [2.022779, 49.074249], [2.024154, 49.073936], [2.025251, 49.073801], [2.026087, 49.073763], [2.026906, 49.073851], [2.026981, 49.073536], [2.024848, 49.073393], [2.024911, 49.072944], [2.025816, 49.072862], [2.026022, 49.072818], [2.026231, 49.07264], [2.026707, 49.072051], [2.026509, 49.071698], [2.026368, 49.071158], [2.026375, 49.070079], [2.026312, 49.069763], [2.026183, 49.069358], [2.025701, 49.068814], [2.025026, 49.068323], [2.022152, 49.066825], [2.022154, 49.066735], [2.02744, 49.065079], [2.02758, 49.064945], [2.02778, 49.064497], [2.028133, 49.06387], [2.028465, 49.063693], [2.02874, 49.06365], [2.028806, 49.063741], [2.029073, 49.064858], [2.029285, 49.065219], [2.029552, 49.065581], [2.029956, 49.065944], [2.030236, 49.066351], [2.030642, 49.06657], [2.030979, 49.066843], [2.031531, 49.067351], [2.031735, 49.067397], [2.034397, 49.066268], [2.034197, 49.065996], [2.033794, 49.064878], [2.033465, 49.064156], [2.032779, 49.063521], [2.032782, 49.063341], [2.034626, 49.062808], [2.035163, 49.064116], [2.035305, 49.064567], [2.035849, 49.065461], [2.03604, 49.066227], [2.036251, 49.066642], [2.036443, 49.067363], [2.036658, 49.06759], [2.037131, 49.067944], [2.037397, 49.068351], [2.037673, 49.068938], [2.038611, 49.07078], [2.041335, 49.074425], [2.041259, 49.074874], [2.041188, 49.075008], [2.041264, 49.075324], [2.041733, 49.075867], [2.042752, 49.077035], [2.0433, 49.077723], [2.043498, 49.078129], [2.043635, 49.078886], [2.043965, 49.079518], [2.044787, 49.080963], [2.045182, 49.081856], [2.045585, 49.082983], [2.046072, 49.083302], [2.046695, 49.083658], [2.048058, 49.084019], [2.049504, 49.084291], [2.050244, 49.084207], [2.050587, 49.08421], [2.051827, 49.08448], [2.054696, 49.084845], [2.061802, 49.086258], [2.0631, 49.086403], [2.063718, 49.086318], [2.06412, 49.086034], [2.06634, 49.084423], [2.067228, 49.083756], [2.069843, 49.08142], [2.072792, 49.078826], [2.072998, 49.078783], [2.074701, 49.080756], [2.07497, 49.081028], [2.076674, 49.082965], [2.07701, 49.083328], [2.078379, 49.084867], [2.078582, 49.085003], [2.079599, 49.084777], [2.083866, 49.084243], [2.08414, 49.0842], [2.084269, 49.083887], [2.084751, 49.082937], [2.084961, 49.082669], [2.085585, 49.082224], [2.086263, 49.081816], [2.086332, 49.081771], [2.086406, 49.081457], [2.086421, 49.079839], [2.086147, 49.079072], [2.085664, 49.078493], [2.085671, 49.078134], [2.086018, 49.077866], [2.086763, 49.077503], [2.086907, 49.0771], [2.086903, 49.07656], [2.086777, 49.07593], [2.086778, 49.074311], [2.086858, 49.073683], [2.086998, 49.073504], [2.08734, 49.073506], [2.088022, 49.073646], [2.088365, 49.073595], [2.090206, 49.072386], [2.090415, 49.072208], [2.090963, 49.072976], [2.091168, 49.072978], [2.092803, 49.072622], [2.093626, 49.072484], [2.094177, 49.072308], [2.095206, 49.072172], [2.096113, 49.071954], [2.096723, 49.071509], [2.098097, 49.070422], [2.098515, 49.069976], [2.100093, 49.068945], [2.100497, 49.068534], [2.101257, 49.06809], [2.102828, 49.067508], [2.103858, 49.067282], [2.103862, 49.067058], [2.103245, 49.066298], [2.103252, 49.065938], [2.103658, 49.065402], [2.104351, 49.064903], [2.105026, 49.064593], [2.105089, 49.064918], [2.105054, 49.065376], [2.105573, 49.065407], [2.10599, 49.065041], [2.106325, 49.064684], [2.106536, 49.064326], [2.106476, 49.063876], [2.106263, 49.063515], [2.105653, 49.063159], [2.105247, 49.062923], [2.104796, 49.062874], [2.104666, 49.062478], [2.104831, 49.061661], [2.104935, 49.06114], [2.104763, 49.060806], [2.104989, 49.060412], [2.1058, 49.060193], [2.106238, 49.060205], [2.106722, 49.059912], [2.107064, 49.059924], [2.107258, 49.059772], [2.108243, 49.059753], [2.109089, 49.059903], [2.110515, 49.059743], [2.111036, 49.059674], [2.112511, 49.060657], [2.112964, 49.060552], [2.113457, 49.061338], [2.114117, 49.061936], [2.115042, 49.062276], [2.115559, 49.062468], [2.116254, 49.061799], [2.117271, 49.062364], [2.117441, 49.062788], [2.118625, 49.06321], [2.119706, 49.063983], [2.120378, 49.064698], [2.121524, 49.064131], [2.121729, 49.064132], [2.123983, 49.065165], [2.124867, 49.065504], [2.125034, 49.065343], [2.12517, 49.065416], [2.125903, 49.064918], [2.127, 49.064], [2.1287, 49.064588], [2.129391, 49.065042], [2.130349, 49.065849], [2.131447, 49.066487], [2.132466, 49.06689], [2.133693, 49.067168], [2.134513, 49.067264], [2.135198, 49.067215], [2.135883, 49.06713], [2.138823, 49.066459], [2.139166, 49.066408], [2.140056, 49.066414], [2.141574, 49.066452], [2.141867, 49.066103], [2.145111, 49.066036], [2.147521, 49.06599], [2.148507, 49.065899], [2.149318, 49.065724], [2.149176, 49.065211], [2.147114, 49.064081], [2.145611, 49.063135], [2.145272, 49.062908], [2.144923, 49.06251], [2.144859, 49.06224], [2.144998, 49.062151], [2.146234, 49.061881], [2.147259, 49.061924], [2.147473, 49.061386], [2.147887, 49.061164], [2.148572, 49.061124], [2.149665, 49.061258], [2.150482, 49.06148], [2.150688, 49.061436], [2.151239, 49.061215], [2.15236, 49.059568], [2.153017, 49.057055], [2.152963, 49.05621], [2.153181, 49.054566], [2.153524, 49.051969], [2.151491, 49.051631], [2.151557, 49.050139], [2.14936, 49.049791], [2.149231, 49.049295], [2.149227, 49.048711], [2.149296, 49.048666], [2.149846, 49.048526], [2.150465, 49.047443], [2.150563, 49.047363], [2.150774, 49.046977], [2.15079, 49.046843], [2.151076, 49.046899], [2.151696, 49.045788], [2.152104, 49.045926], [2.152316, 49.045567], [2.152795, 49.044672], [2.153828, 49.044229], [2.156219, 49.042744], [2.156563, 49.042612], [2.163064, 49.040661], [2.157642, 49.037683], [2.156626, 49.037037], [2.155776, 49.036312], [2.156037, 49.036269], [2.156627, 49.036129], [2.15693, 49.036041], [2.158855, 49.035416], [2.160368, 49.034833], [2.161524, 49.034392], [2.162559, 49.033851], [2.165642, 49.032595], [2.167006, 49.032011], [2.168311, 49.031616], [2.168712, 49.031384], [2.174943, 49.029107], [2.177544, 49.028028], [2.178712, 49.027677], [2.180707, 49.026908], [2.183165, 49.025423], [2.182137, 49.024706], [2.180704, 49.023671], [2.17962, 49.022179], [2.17738, 49.019395], [2.176556, 49.018813], [2.175516, 49.017952], [2.175049, 49.017238], [2.1747, 49.016876], [2.174499, 49.016605], [2.173689, 49.015934], [2.172799, 49.0143], [2.175545, 49.013546], [2.181161, 49.01202], [2.187381, 49.010281], [2.191677, 49.009114], [2.193888, 49.008491], [2.197031, 49.00764], [2.197101, 49.00755], [2.196477, 49.007276], [2.194715, 49.006284], [2.193615, 49.005836], [2.193616, 49.005746], [2.194581, 49.005213], [2.195462, 49.004806], [2.195464, 49.004716], [2.193761, 49.0026], [2.192605, 49.002197], [2.188773, 48.997288], [2.188636, 48.997287], [2.18803, 48.997597], [2.187756, 48.997641], [2.18728, 48.997466], [2.184826, 48.996245], [2.183932, 48.995708], [2.181827, 48.993994], [2.180393, 48.99224], [2.178697, 48.990619], [2.177198, 48.989448], [2.176309, 48.988678], [2.175567, 48.988052], [2.175015, 48.987554], [2.173989, 48.986791], [2.173924, 48.986566], [2.173651, 48.986519], [2.172018, 48.985258], [2.16873, 48.983275], [2.168528, 48.983094], [2.166354, 48.981478], [2.165594, 48.982012], [2.164578, 48.982329], [2.163483, 48.982456], [2.162451, 48.982908], [2.161225, 48.983493], [2.159314, 48.984253], [2.157805, 48.984611], [2.156514, 48.985033], [2.156239, 48.985103], [2.155824, 48.985415], [2.154931, 48.985724], [2.151725, 48.986258], [2.149386, 48.98644], [2.146935, 48.986746], [2.144669, 48.987422], [2.142008, 48.988042], [2.140297, 48.988218], [2.137578, 48.988217], [2.134225, 48.988525], [2.131833, 48.988607], [2.12848, 48.988916], [2.127453, 48.989052], [2.126973, 48.989138], [2.126629, 48.989271], [2.125884, 48.989724], [2.123681, 48.991515], [2.123683, 48.99219], [2.12402, 48.993271], [2.124015, 48.993595], [2.120713, 48.993301], [2.12081, 48.993985], [2.120807, 48.994165], [2.121141, 48.995427], [2.121412, 48.996373], [2.121621, 48.996959], [2.12175, 48.997409], [2.122213, 48.999112], [2.122288, 48.999563], [2.122485, 49.000014], [2.122959, 49.001906], [2.123544, 49.003663], [2.124994, 49.00603], [2.12712, 49.009678], [2.126667, 49.012211], [2.12126, 49.018331], [2.12099, 49.018105], [2.12072, 49.017905], [2.120357, 49.017551], [2.115457, 49.013847], [2.112865, 49.011912], [2.110622, 49.010385], [2.110568, 49.009539], [2.11024, 49.008727], [2.105387, 49.009563], [2.101679, 49.010543], [2.0988, 49.011007], [2.097221, 49.0114], [2.096149, 49.01176], [2.092745, 49.012553], [2.084915, 49.014679], [2.084566, 49.013516], [2.08422, 49.012983], [2.08368, 49.011855], [2.083216, 49.011033], [2.082467, 49.010092], [2.082323, 49.009731], [2.082057, 49.009279], [2.081721, 49.008962], [2.07893, 49.007565], [2.07489, 49.006437], [2.074894, 49.006257], [2.075025, 49.005763], [2.075231, 49.004955], [2.075581, 49.002935], [2.075523, 49.002395], [2.075457, 49.002259], [2.072172, 49.001757], [2.071694, 49.001709], [2.071499, 49.001932], [2.071427, 49.002111], [2.071077, 49.002603], [2.070391, 49.003506], [2.069359, 49.004667], [2.068538, 49.005479], [2.066958, 49.006645], [2.06552, 49.007587], [2.064429, 49.008208], [2.064022, 49.008025], [2.061903, 49.007307], [2.06041, 49.006675], [2.059175, 49.00618], [2.058073, 49.005901], [2.056778, 49.00572], [2.055143, 49.005446], [2.053365, 49.004722], [2.050839, 49.003821], [2.050298, 49.003538], [2.049422, 49.002865], [2.049072, 49.002548], [2.048803, 49.002321], [2.047509, 49.002095], [2.046353, 49.00178], [2.044642, 49.001146], [2.042807, 49.000601], [2.042603, 49.000554], [2.041441, 49.001318], [2.038361, 49.001536], [2.034792, 49.001661], [2.033083, 49.001701], [2.031169, 49.001694], [2.029326, 49.001598], [2.028303, 49.001464], [2.026539, 49.000785], [2.026135, 49.000466], [2.024773, 48.998756], [2.023614, 48.997901], [2.023408, 48.997944], [2.023007, 48.998166], [2.022042, 48.998617], [2.014438, 49.001063], [2.013342, 49.001198], [2.012993, 49.001555], [2.012862, 49.002004], [2.012782, 49.002588], [2.012362, 49.003843], [2.012226, 49.004561], [2.012085, 49.00474], [2.009967, 49.006179], [2.008872, 49.00698], [2.007632, 49.008193], [2.007631, 49.008237], [2.006462, 49.009316], [2.005978, 49.009627], [2.005221, 49.00989], [2.004889, 49.010067], [2.004193, 49.010709], [2.002806, 49.011786], [2.001707, 49.012766], [2.00075, 49.013486], [1.998622, 49.015366], [1.995258, 49.018233], [1.992643, 49.020513], [1.991882, 49.021011]]]]}}, {"type": "Feature", "properties": {"idPolice": 3, "nom": "ENGHIEN-LES-BAINS", "comBase": "95210"}, "geometry": {"type": "MultiPolygon", "coordinates": [[[[2.292862, 48.995842], [2.291092, 48.996389], [2.290336, 48.996699], [2.289651, 48.996839], [2.287594, 48.997331], [2.284585, 48.997466], [2.281104, 48.998182], [2.281238, 48.998363], [2.282387, 48.999296], [2.283093, 48.999669], [2.283321, 48.999976], [2.283557, 49.000724], [2.283748, 49.000752], [2.283742, 49.001165], [2.28386, 49.001553], [2.28209, 49.002037], [2.281865, 49.00244], [2.282066, 49.002738], [2.283143, 49.002942], [2.283554, 49.0029], [2.283829, 49.002767], [2.284238, 49.002859], [2.284985, 49.003169], [2.286422, 49.004068], [2.287237, 49.004432], [2.288821, 49.005557], [2.289442, 49.006091], [2.289916, 49.006454], [2.291079, 49.006362], [2.291831, 49.006321], [2.291852, 49.006816], [2.292167, 49.006728], [2.292395, 49.007062], [2.291846, 49.007211], [2.292289, 49.007816], [2.292413, 49.007718], [2.292935, 49.007578], [2.294169, 49.009257], [2.29472, 49.008982], [2.295235, 49.01028], [2.29545, 49.010551], [2.29654, 49.010872], [2.297221, 49.011002], [2.297761, 49.0115], [2.298591, 49.012799], [2.299272, 49.014017], [2.299945, 49.014821], [2.300703, 49.01541], [2.300974, 49.015538], [2.301381, 49.01581], [2.301185, 49.016168], [2.300286, 49.016937], [2.300353, 49.017027], [2.300842, 49.017246], [2.3005, 49.018287], [2.300496, 49.018601], [2.301321, 49.019272], [2.301792, 49.019769], [2.302549, 49.020439], [2.302817, 49.020845], [2.30281, 49.021348], [2.30247, 49.022246], [2.301794, 49.022691], [2.301381, 49.022878], [2.301383, 49.023777], [2.303841, 49.023998], [2.305688, 49.023955], [2.305895, 49.023821], [2.305887, 49.023327], [2.305687, 49.023011], [2.304461, 49.022653], [2.304325, 49.021573], [2.304391, 49.02071], [2.305479, 49.020123], [2.308642, 49.018729], [2.30918, 49.018418], [2.309867, 49.018107], [2.310886, 49.017609], [2.311985, 49.017166], [2.312536, 49.016845], [2.312879, 49.016758], [2.313017, 49.016668], [2.31274, 49.015902], [2.312878, 49.014824], [2.31485, 49.014512], [2.315404, 49.01402], [2.315601, 49.013572], [2.315533, 49.012492], [2.315749, 49.011684], [2.316153, 49.011093], [2.316631, 49.011141], [2.317653, 49.011362], [2.318812, 49.011594], [2.320177, 49.010693], [2.321859, 49.010658], [2.322304, 49.010067], [2.321829, 49.008805], [2.321148, 49.007543], [2.320733, 49.005832], [2.320807, 49.005427], [2.323539, 49.004481], [2.324281, 49.00417], [2.325036, 49.00395], [2.32626, 49.003363], [2.327442, 49.002866], [2.329285, 49.001968], [2.330107, 49.001748], [2.330928, 49.001699], [2.331545, 49.001567], [2.331336, 49.000802], [2.330849, 49.000394], [2.330509, 49.000257], [2.330239, 48.999995], [2.330241, 48.999905], [2.332021, 48.999591], [2.333116, 48.999499], [2.332695, 48.998237], [2.331881, 48.996713], [2.331672, 48.995948], [2.331675, 48.995714], [2.333048, 48.995218], [2.333789, 48.994952], [2.334891, 48.99432], [2.335981, 48.993427], [2.336862, 48.992946], [2.33748, 48.992752], [2.336994, 48.993288], [2.337664, 48.99331], [2.33769, 48.993364], [2.338757, 48.993307], [2.339262, 48.993328], [2.339245, 48.993607], [2.339516, 48.993788], [2.340349, 48.993828], [2.341443, 48.993825], [2.342525, 48.993562], [2.345464, 48.993515], [2.34712, 48.99329], [2.348829, 48.993245], [2.34924, 48.993194], [2.350742, 48.993238], [2.350736, 48.992617], [2.350472, 48.990817], [2.352793, 48.990992], [2.354635, 48.991172], [2.356821, 48.991175], [2.357027, 48.991131], [2.356883, 48.990636], [2.356951, 48.989557], [2.357361, 48.989559], [2.359279, 48.990226], [2.359484, 48.990227], [2.359889, 48.989555], [2.360564, 48.987985], [2.361182, 48.986594], [2.362476, 48.986952], [2.363918, 48.98749], [2.364867, 48.988026], [2.365691, 48.988839], [2.365979, 48.988742], [2.368094, 48.98789], [2.368165, 48.98762], [2.368028, 48.986586], [2.367746, 48.986144], [2.367756, 48.985289], [2.368024, 48.984616], [2.368017, 48.984077], [2.367549, 48.98322], [2.367335, 48.98285], [2.36645, 48.981461], [2.366184, 48.98092], [2.364257, 48.978715], [2.364593, 48.978043], [2.366156, 48.97422], [2.366157, 48.97413], [2.365687, 48.973507], [2.365283, 48.973028], [2.361489, 48.973845], [2.360221, 48.972516], [2.359192, 48.972879], [2.358782, 48.972922], [2.358716, 48.972742], [2.3577, 48.970947], [2.356439, 48.969106], [2.356934, 48.968802], [2.354988, 48.967137], [2.35421, 48.966036], [2.353927, 48.965729], [2.353666, 48.965817], [2.353464, 48.965627], [2.352492, 48.965811], [2.351639, 48.966256], [2.351416, 48.966668], [2.350046, 48.966985], [2.34862, 48.967391], [2.347867, 48.967522], [2.345935, 48.968015], [2.344102, 48.968238], [2.343753, 48.967796], [2.343281, 48.967299], [2.342055, 48.965952], [2.341642, 48.96514], [2.340755, 48.963976], [2.339666, 48.962675], [2.33953, 48.962629], [2.339255, 48.962762], [2.338981, 48.962806], [2.338577, 48.962354], [2.337531, 48.960837], [2.337993, 48.959977], [2.337065, 48.958847], [2.336458, 48.958268], [2.334274, 48.956044], [2.334026, 48.956178], [2.333313, 48.955382], [2.33297, 48.955515], [2.329216, 48.958579], [2.328883, 48.959027], [2.328812, 48.959206], [2.328467, 48.959483], [2.328342, 48.959662], [2.327727, 48.959659], [2.327375, 48.959477], [2.325112, 48.958088], [2.322798, 48.957545], [2.322455, 48.957597], [2.319178, 48.958666], [2.317195, 48.959887], [2.317126, 48.959931], [2.316175, 48.960645], [2.315626, 48.960867], [2.314331, 48.961678], [2.313177, 48.96222], [2.311006, 48.962163], [2.31037, 48.961745], [2.309896, 48.962444], [2.309493, 48.962981], [2.30894, 48.963509], [2.307147, 48.962752], [2.306693, 48.963028], [2.305308, 48.962355], [2.304968, 48.962308], [2.303335, 48.963881], [2.301555, 48.965228], [2.298959, 48.966301], [2.298617, 48.966353], [2.298007, 48.966035], [2.294593, 48.963965], [2.293101, 48.9632], [2.292206, 48.96271], [2.291731, 48.962527], [2.28982, 48.961446], [2.289207, 48.960327], [2.289377, 48.959878], [2.2888, 48.95911], [2.288461, 48.958973], [2.288396, 48.959737], [2.288123, 48.959736], [2.28312, 48.959068], [2.282982, 48.959157], [2.282712, 48.959964], [2.279536, 48.959541], [2.279858, 48.959902], [2.279801, 48.961098], [2.278968, 48.961066], [2.278971, 48.961857], [2.276497, 48.962004], [2.276489, 48.963524], [2.276216, 48.963558], [2.276167, 48.964107], [2.274623, 48.964142], [2.274681, 48.964934], [2.275446, 48.964903], [2.275496, 48.965227], [2.273581, 48.96544], [2.27423, 48.966856], [2.275173, 48.966861], [2.275834, 48.968376], [2.275105, 48.96874], [2.275222, 48.969218], [2.273902, 48.969794], [2.273786, 48.970297], [2.273459, 48.970232], [2.2728, 48.97048], [2.273354, 48.970951], [2.274031, 48.972331], [2.273071, 48.972595], [2.271235, 48.972998], [2.271368, 48.973268], [2.272252, 48.974478], [2.271646, 48.974834], [2.273423, 48.976707], [2.273712, 48.976601], [2.273846, 48.976781], [2.274231, 48.976595], [2.275729, 48.97592], [2.275936, 48.975787], [2.277094, 48.97601], [2.277911, 48.976239], [2.280514, 48.976687], [2.281194, 48.976861], [2.282149, 48.976957], [2.283029, 48.977583], [2.284261, 48.977365], [2.287489, 48.977097], [2.289471, 48.977001], [2.289812, 48.977003], [2.290014, 48.977229], [2.290219, 48.97723], [2.291858, 48.976241], [2.291858, 48.978265], [2.291715, 48.978759], [2.291698, 48.978974], [2.289438, 48.980391], [2.288911, 48.980981], [2.287052, 48.982076], [2.286643, 48.982982], [2.286032, 48.983662], [2.285823, 48.983975], [2.285145, 48.984646], [2.284396, 48.985415], [2.284258, 48.985549], [2.284525, 48.986], [2.285145, 48.986624], [2.285817, 48.987392], [2.287262, 48.988651], [2.287816, 48.98914], [2.290881, 48.992827], [2.291843, 48.994406], [2.29211, 48.994893], [2.292379, 48.99521], [2.292862, 48.995842]]]]}}, {"type": "Feature", "properties": {"idPolice": 5, "nom": "SARCELLES", "comBase": "95585"}, "geometry": {"type": "MultiPolygon", "coordinates": [[[[2.408137, 48.991961], [2.408138, 48.991871], [2.407447, 48.991292], [2.406626, 48.990254], [2.406152, 48.989811], [2.405742, 48.989899], [2.405331, 48.989942], [2.405128, 48.989806], [2.40471, 48.989318], [2.403615, 48.988279], [2.40251, 48.986888], [2.402179, 48.986032], [2.401964, 48.985725], [2.401623, 48.98442], [2.40081, 48.982653], [2.401411, 48.982656], [2.40374, 48.982164], [2.404058, 48.982993], [2.406643, 48.982709], [2.407576, 48.982417], [2.409391, 48.981401], [2.410281, 48.981252], [2.411598, 48.980746], [2.412584, 48.980562], [2.415396, 48.980711], [2.417548, 48.980128], [2.416432, 48.978459], [2.417652, 48.978096], [2.417874, 48.977845], [2.418419, 48.977911], [2.42101, 48.977114], [2.421386, 48.976496], [2.422494, 48.976357], [2.424091, 48.975232], [2.424817, 48.975019], [2.424738, 48.974794], [2.424144, 48.97418], [2.422102, 48.973532], [2.422873, 48.972951], [2.421162, 48.97207], [2.421125, 48.971755], [2.420538, 48.971707], [2.420404, 48.97141], [2.420174, 48.971265], [2.420124, 48.97086], [2.419728, 48.970804], [2.419508, 48.970983], [2.419387, 48.970803], [2.418682, 48.970278], [2.417867, 48.969923], [2.417497, 48.97002], [2.417224, 48.969992], [2.417145, 48.969722], [2.417052, 48.969496], [2.417245, 48.969371], [2.416988, 48.969136], [2.416634, 48.969], [2.416924, 48.96874], [2.417747, 48.968403], [2.418749, 48.967994], [2.419051, 48.96786], [2.418783, 48.967383], [2.417858, 48.965876], [2.417701, 48.965201], [2.417819, 48.964437], [2.417983, 48.964447], [2.418168, 48.963756], [2.418929, 48.962896], [2.419347, 48.962098], [2.417097, 48.961835], [2.417222, 48.961647], [2.417051, 48.961097], [2.41714, 48.960423], [2.417581, 48.960102], [2.418262, 48.959053], [2.41885, 48.957752], [2.418537, 48.957606], [2.418505, 48.958065], [2.418043, 48.959034], [2.417794, 48.959311], [2.417779, 48.959473], [2.417546, 48.959508], [2.417221, 48.959318], [2.416676, 48.95918], [2.415753, 48.958726], [2.414938, 48.958263], [2.413658, 48.957996], [2.413688, 48.957736], [2.413183, 48.957715], [2.412102, 48.957881], [2.4112, 48.957975], [2.409712, 48.957932], [2.409858, 48.957069], [2.4096, 48.95696], [2.40834, 48.957287], [2.407678, 48.956708], [2.407529, 48.956572], [2.407384, 48.956122], [2.405133, 48.957118], [2.403293, 48.958017], [2.402406, 48.957932], [2.401733, 48.958252], [2.397973, 48.959888], [2.397972, 48.959915], [2.397959, 48.959933], [2.39771, 48.960138], [2.396825, 48.961132], [2.395999, 48.961668], [2.39546, 48.962204], [2.393753, 48.963419], [2.391084, 48.965069], [2.390963, 48.964933], [2.388688, 48.966756], [2.384632, 48.970126], [2.38454, 48.970998], [2.382447, 48.971284], [2.378385, 48.971658], [2.377236, 48.971796], [2.376415, 48.971927], [2.375936, 48.972023], [2.375799, 48.972068], [2.374089, 48.972292], [2.369516, 48.973141], [2.36809, 48.973547], [2.366444, 48.974177], [2.366156, 48.97422], [2.364593, 48.978043], [2.364257, 48.978715], [2.366184, 48.98092], [2.36645, 48.981461], [2.367335, 48.98285], [2.367549, 48.98322], [2.368017, 48.984077], [2.368024, 48.984616], [2.367756, 48.985289], [2.367746, 48.986144], [2.368028, 48.986586], [2.368165, 48.98762], [2.368094, 48.98789], [2.365979, 48.988742], [2.365691, 48.988839], [2.364867, 48.988026], [2.363918, 48.98749], [2.362476, 48.986952], [2.361182, 48.986594], [2.360564, 48.987985], [2.359889, 48.989555], [2.359484, 48.990227], [2.359279, 48.990226], [2.357361, 48.989559], [2.356951, 48.989557], [2.356883, 48.990636], [2.357027, 48.991131], [2.356821, 48.991175], [2.354635, 48.991172], [2.352793, 48.990992], [2.350472, 48.990817], [2.350736, 48.992617], [2.350742, 48.993238], [2.34924, 48.993194], [2.348829, 48.993245], [2.34712, 48.99329], [2.345464, 48.993515], [2.342525, 48.993562], [2.341443, 48.993825], [2.340349, 48.993828], [2.339516, 48.993788], [2.339245, 48.993607], [2.339262, 48.993328], [2.338757, 48.993307], [2.33769, 48.993364], [2.337664, 48.99331], [2.336994, 48.993288], [2.33748, 48.992752], [2.336862, 48.992946], [2.335981, 48.993427], [2.334891, 48.99432], [2.333789, 48.994952], [2.333048, 48.995218], [2.331675, 48.995714], [2.331672, 48.995948], [2.331881, 48.996713], [2.332695, 48.998237], [2.333116, 48.999499], [2.332021, 48.999591], [2.330241, 48.999905], [2.330239, 48.999995], [2.330509, 49.000257], [2.330849, 49.000394], [2.331336, 49.000802], [2.331545, 49.001567], [2.330928, 49.001699], [2.330107, 49.001748], [2.329285, 49.001968], [2.327442, 49.002866], [2.32626, 49.003363], [2.325036, 49.00395], [2.324281, 49.00417], [2.323539, 49.004481], [2.320807, 49.005427], [2.320733, 49.005832], [2.321148, 49.007543], [2.321829, 49.008805], [2.322304, 49.010067], [2.324082, 49.010023], [2.325644, 49.009753], [2.326327, 49.009748], [2.326873, 49.009841], [2.327435, 49.009709], [2.328604, 49.009122], [2.329697, 49.009164], [2.330644, 49.0089], [2.331192, 49.008804], [2.33236, 49.008352], [2.333248, 49.008348], [2.333862, 49.00845], [2.334674, 49.007987], [2.337554, 49.007275], [2.340007, 49.00682], [2.342735, 49.006143], [2.344926, 49.005876], [2.345473, 49.005789], [2.345807, 49.006466], [2.346081, 49.007447], [2.346504, 49.008627], [2.347397, 49.010422], [2.348017, 49.011145], [2.349385, 49.012177], [2.349652, 49.012673], [2.351696, 49.013161], [2.353612, 49.014106], [2.354711, 49.014778], [2.356003, 49.015324], [2.357849, 49.01635], [2.359354, 49.017428], [2.359827, 49.017835], [2.361264, 49.018823], [2.36174, 49.019006], [2.363111, 49.019858], [2.36345, 49.02004], [2.363873, 49.020141], [2.36325, 49.019679], [2.362775, 49.018283], [2.36222, 49.01667], [2.362287, 49.015726], [2.362557, 49.014873], [2.362566, 49.014109], [2.361808, 49.012397], [2.361747, 49.011767], [2.361876, 49.011318], [2.362294, 49.010691], [2.363647, 49.009565], [2.364335, 49.010333], [2.365172, 49.011228], [2.366328, 49.011638], [2.367563, 49.012445], [2.368041, 49.012439], [2.368249, 49.012215], [2.369069, 49.012264], [2.369617, 49.012132], [2.369811, 49.011899], [2.369948, 49.011855], [2.370768, 49.011904], [2.37138, 49.012168], [2.371995, 49.012172], [2.372201, 49.012128], [2.372815, 49.012176], [2.37344, 49.01253], [2.373849, 49.012622], [2.376993, 49.01262], [2.379307, 49.013424], [2.37958, 49.01347], [2.380476, 49.013969], [2.381088, 49.014242], [2.382003, 49.014364], [2.38199, 49.014265], [2.382799, 49.014089], [2.38279, 49.013711], [2.384981, 49.01339], [2.385204, 49.014182], [2.387503, 49.014014], [2.388978, 49.014094], [2.392547, 49.01404], [2.393461, 49.014143], [2.393465, 49.014998], [2.39388, 49.015755], [2.394556, 49.016433], [2.396747, 49.01612], [2.397639, 49.017015], [2.398114, 49.017242], [2.401737, 49.019616], [2.403193, 49.020244], [2.404617, 49.021276], [2.405242, 49.021594], [2.40865, 49.02367], [2.409547, 49.024205], [2.409752, 49.024161], [2.410014, 49.024018], [2.410274, 49.023993], [2.412239, 49.023103], [2.412119, 49.022851], [2.413243, 49.022586], [2.413082, 49.022334], [2.414525, 49.02163], [2.415692, 49.021232], [2.417053, 49.0206], [2.418417, 49.019653], [2.420198, 49.019293], [2.421718, 49.019067], [2.423007, 49.018749], [2.423009, 49.018614], [2.421987, 49.017045], [2.422193, 49.016911], [2.421763, 49.016324], [2.42155, 49.015784], [2.423485, 49.01511], [2.423554, 49.01502], [2.42341, 49.014435], [2.423549, 49.014256], [2.424646, 49.013991], [2.425124, 49.013984], [2.424775, 49.013452], [2.42471, 49.013092], [2.425601, 49.012863], [2.428328, 49.012318], [2.428397, 49.012229], [2.428263, 49.012003], [2.426268, 49.010663], [2.425792, 49.010436], [2.424219, 49.009349], [2.423949, 49.008988], [2.421761, 49.00664], [2.420166, 49.005022], [2.420503, 49.003028], [2.41896, 49.002921], [2.418837, 49.001653], [2.419399, 49.001503], [2.419, 48.999262], [2.416577, 48.999664], [2.416535, 48.998503], [2.416525, 48.998207], [2.414216, 48.998105], [2.415686, 48.995019], [2.413816, 48.994875], [2.413705, 48.99376], [2.412162, 48.993716], [2.411562, 48.993578], [2.410014, 48.993867], [2.409141, 48.993719], [2.408137, 48.991961]]]]}}, {"type": "Feature", "properties": {"idPolice": 6, "nom": "ERMONT", "comBase": "95219"}, "geometry": {"type": "MultiPolygon", "coordinates": [[[[2.258272, 49.04001], [2.259795, 49.039669], [2.263681, 49.038596], [2.267853, 49.038549], [2.274776, 49.036442], [2.275119, 49.036309], [2.28332, 49.033697], [2.283596, 49.033519], [2.283997, 49.033206], [2.285162, 49.033069], [2.287619, 49.032392], [2.289542, 49.031765], [2.290846, 49.031404], [2.291328, 49.031182], [2.292494, 49.030874], [2.292838, 49.030732], [2.294404, 49.030238], [2.295493, 49.029614], [2.295974, 49.029384], [2.297477, 49.028493], [2.297075, 49.027861], [2.296522, 49.027319], [2.295571, 49.026827], [2.295572, 49.026782], [2.296316, 49.026373], [2.297208, 49.026109], [2.300901, 49.024044], [2.301383, 49.023777], [2.301381, 49.022878], [2.301794, 49.022691], [2.30247, 49.022246], [2.30281, 49.021348], [2.302817, 49.020845], [2.302549, 49.020439], [2.301792, 49.019769], [2.301321, 49.019272], [2.300496, 49.018601], [2.3005, 49.018287], [2.300842, 49.017246], [2.300353, 49.017027], [2.300286, 49.016937], [2.301185, 49.016168], [2.301381, 49.01581], [2.300974, 49.015538], [2.300703, 49.01541], [2.299945, 49.014821], [2.299272, 49.014017], [2.298591, 49.012799], [2.297761, 49.0115], [2.297221, 49.011002], [2.29654, 49.010872], [2.29545, 49.010551], [2.295235, 49.01028], [2.29472, 49.008982], [2.294169, 49.009257], [2.292935, 49.007578], [2.292413, 49.007718], [2.292289, 49.007816], [2.291846, 49.007211], [2.292395, 49.007062], [2.292167, 49.006728], [2.291852, 49.006816], [2.291831, 49.006321], [2.291079, 49.006362], [2.289916, 49.006454], [2.289442, 49.006091], [2.288821, 49.005557], [2.287237, 49.004432], [2.286422, 49.004068], [2.284985, 49.003169], [2.284238, 49.002859], [2.283829, 49.002767], [2.283554, 49.0029], [2.283143, 49.002942], [2.282066, 49.002738], [2.281865, 49.00244], [2.28209, 49.002037], [2.28386, 49.001553], [2.283742, 49.001165], [2.283748, 49.000752], [2.283557, 49.000724], [2.283321, 48.999976], [2.283093, 48.999669], [2.282387, 48.999296], [2.281238, 48.998363], [2.281104, 48.998182], [2.284585, 48.997466], [2.287594, 48.997331], [2.289651, 48.996839], [2.290336, 48.996699], [2.291092, 48.996389], [2.292862, 48.995842], [2.292379, 48.99521], [2.29211, 48.994893], [2.291843, 48.994406], [2.290881, 48.992827], [2.287816, 48.98914], [2.287262, 48.988651], [2.285817, 48.987392], [2.285145, 48.986624], [2.284525, 48.986], [2.284258, 48.985549], [2.284396, 48.985415], [2.285145, 48.984646], [2.285823, 48.983975], [2.286032, 48.983662], [2.286643, 48.982982], [2.287052, 48.982076], [2.288911, 48.980981], [2.289438, 48.980391], [2.291698, 48.978974], [2.291715, 48.978759], [2.291858, 48.978265], [2.291858, 48.976241], [2.290219, 48.97723], [2.290014, 48.977229], [2.289812, 48.977003], [2.289471, 48.977001], [2.287489, 48.977097], [2.284261, 48.977365], [2.283029, 48.977583], [2.282149, 48.976957], [2.281194, 48.976861], [2.280514, 48.976687], [2.277911, 48.976239], [2.277094, 48.97601], [2.275936, 48.975787], [2.275729, 48.97592], [2.274231, 48.976595], [2.273846, 48.976781], [2.273712, 48.976601], [2.273423, 48.976707], [2.271646, 48.974834], [2.272252, 48.974478], [2.271368, 48.973268], [2.271235, 48.972998], [2.273071, 48.972595], [2.274031, 48.972331], [2.273354, 48.970951], [2.2728, 48.97048], [2.273459, 48.970232], [2.273786, 48.970297], [2.273902, 48.969794], [2.275222, 48.969218], [2.275105, 48.96874], [2.275834, 48.968376], [2.275173, 48.966861], [2.27423, 48.966856], [2.273581, 48.96544], [2.275496, 48.965227], [2.275446, 48.964903], [2.274681, 48.964934], [2.274623, 48.964142], [2.273075, 48.963521], [2.273023, 48.964321], [2.271259, 48.9645], [2.271099, 48.964211], [2.26844, 48.963862], [2.267816, 48.963606], [2.267794, 48.963175], [2.267058, 48.963116], [2.265665, 48.96309], [2.265613, 48.962927], [2.265052, 48.962987], [2.264465, 48.96203], [2.264053, 48.962153], [2.263796, 48.961963], [2.263108, 48.962336], [2.262355, 48.962467], [2.261408, 48.96283], [2.260655, 48.96296], [2.259009, 48.963453], [2.257793, 48.963455], [2.25704, 48.963585], [2.255331, 48.963718], [2.251234, 48.96372], [2.248978, 48.96385], [2.248375, 48.964035], [2.248372, 48.964214], [2.249421, 48.965336], [2.245893, 48.966591], [2.245906, 48.966672], [2.245371, 48.966776], [2.244043, 48.96702], [2.243494, 48.967214], [2.242779, 48.966571], [2.242341, 48.966631], [2.241247, 48.966768], [2.240368, 48.967078], [2.239478, 48.967216], [2.238656, 48.967391], [2.238244, 48.967577], [2.236541, 48.968204], [2.235789, 48.968245], [2.232791, 48.967794], [2.23163, 48.96775], [2.231349, 48.968333], [2.230306, 48.969522], [2.230366, 48.970134], [2.229103, 48.970576], [2.227187, 48.970797], [2.225736, 48.971022], [2.226258, 48.971754], [2.227156, 48.971984], [2.227426, 48.972202], [2.228754, 48.972876], [2.227788, 48.973553], [2.226826, 48.973951], [2.226415, 48.974039], [2.225738, 48.973639], [2.225466, 48.973547], [2.224566, 48.974351], [2.223882, 48.975299], [2.223607, 48.975477], [2.222594, 48.975615], [2.221297, 48.975561], [2.220135, 48.975563], [2.219034, 48.976149], [2.21897, 48.976733], [2.219169, 48.977139], [2.219242, 48.977715], [2.218554, 48.978079], [2.218624, 48.978889], [2.21889, 48.979341], [2.21787, 48.979963], [2.215754, 48.980768], [2.215479, 48.980865], [2.214722, 48.98122], [2.213156, 48.981803], [2.211994, 48.981849], [2.211514, 48.981936], [2.210896, 48.982202], [2.210766, 48.982651], [2.210283, 48.982926], [2.209941, 48.982969], [2.209607, 48.982517], [2.20947, 48.982516], [2.20815, 48.983056], [2.206518, 48.983459], [2.205286, 48.983595], [2.204121, 48.983857], [2.203309, 48.98422], [2.203508, 48.984662], [2.203208, 48.985451], [2.204124, 48.98633], [2.204245, 48.990026], [2.201848, 48.990424], [2.201246, 48.990474], [2.200568, 48.988311], [2.200288, 48.98786], [2.199678, 48.987586], [2.198556, 48.98766], [2.199069, 48.986323], [2.19853, 48.985816], [2.197718, 48.985298], [2.194863, 48.985279], [2.194148, 48.984671], [2.193121, 48.984799], [2.193138, 48.984638], [2.192044, 48.984657], [2.191228, 48.984454], [2.191041, 48.984183], [2.191228, 48.983564], [2.190833, 48.983498], [2.190734, 48.983677], [2.189086, 48.983351], [2.189105, 48.983037], [2.187531, 48.981461], [2.187398, 48.981236], [2.188004, 48.980871], [2.189588, 48.980063], [2.189727, 48.97993], [2.189186, 48.979575], [2.188435, 48.979525], [2.187945, 48.979441], [2.187056, 48.97948], [2.18658, 48.979342], [2.18542, 48.979298], [2.185146, 48.979341], [2.1848, 48.979608], [2.184458, 48.97966], [2.183982, 48.979522], [2.183438, 48.979338], [2.182755, 48.980197], [2.181786, 48.981854], [2.181719, 48.984371], [2.181582, 48.984416], [2.178843, 48.985674], [2.1772, 48.985896], [2.175773, 48.9863], [2.174609, 48.986427], [2.173924, 48.986566], [2.173989, 48.986791], [2.175015, 48.987554], [2.175567, 48.988052], [2.176309, 48.988678], [2.177198, 48.989448], [2.178697, 48.990619], [2.180393, 48.99224], [2.181827, 48.993994], [2.183932, 48.995708], [2.184826, 48.996245], [2.18728, 48.997466], [2.187756, 48.997641], [2.18803, 48.997597], [2.188636, 48.997287], [2.188773, 48.997288], [2.192605, 49.002197], [2.193761, 49.0026], [2.195464, 49.004716], [2.195462, 49.004806], [2.194581, 49.005213], [2.193616, 49.005746], [2.193615, 49.005836], [2.194715, 49.006284], [2.196477, 49.007276], [2.197101, 49.00755], [2.197031, 49.00764], [2.193888, 49.008491], [2.191677, 49.009114], [2.187381, 49.010281], [2.181161, 49.01202], [2.175545, 49.013546], [2.172799, 49.0143], [2.173689, 49.015934], [2.174499, 49.016605], [2.1747, 49.016876], [2.175049, 49.017238], [2.175516, 49.017952], [2.176556, 49.018813], [2.17738, 49.019395], [2.17962, 49.022179], [2.180704, 49.023671], [2.182137, 49.024706], [2.183165, 49.025423], [2.180707, 49.026908], [2.178712, 49.027677], [2.177544, 49.028028], [2.174943, 49.029107], [2.168712, 49.031384], [2.168311, 49.031616], [2.168511, 49.031932], [2.168848, 49.033139], [2.168919, 49.033814], [2.169529, 49.034987], [2.170548, 49.036244], [2.173265, 49.038268], [2.173415, 49.038314], [2.173886, 49.038767], [2.174091, 49.038813], [2.174846, 49.039484], [2.1775, 49.041202], [2.17784, 49.041339], [2.178529, 49.041838], [2.179549, 49.043095], [2.180022, 49.043458], [2.180358, 49.043811], [2.181739, 49.04471], [2.183111, 49.045349], [2.183453, 49.045343], [2.186254, 49.044678], [2.189608, 49.043649], [2.189399, 49.043018], [2.188987, 49.042206], [2.189059, 49.042026], [2.19023, 49.041486], [2.190708, 49.041489], [2.191719, 49.042476], [2.193425, 49.043558], [2.194458, 49.044014], [2.194937, 49.043963], [2.195751, 49.043564], [2.196717, 49.043022], [2.196786, 49.042933], [2.196991, 49.042979], [2.199386, 49.04465], [2.200007, 49.045184], [2.201644, 49.0464], [2.202116, 49.046808], [2.202183, 49.046898], [2.202389, 49.046855], [2.203697, 49.045416], [2.203823, 49.045237], [2.205679, 49.04551], [2.20663, 49.045912], [2.209498, 49.046227], [2.209504, 49.046722], [2.211064, 49.046678], [2.211346, 49.04704], [2.211757, 49.046997], [2.212296, 49.046686], [2.212432, 49.046678], [2.213255, 49.047493], [2.213321, 49.047628], [2.21435, 49.047401], [2.215588, 49.046959], [2.216673, 49.046688], [2.217582, 49.04628], [2.218267, 49.046195], [2.220593, 49.046201], [2.222295, 49.045789], [2.223875, 49.045305], [2.224009, 49.045522], [2.225171, 49.046473], [2.228371, 49.049272], [2.229399, 49.050079], [2.23056, 49.051157], [2.231303, 49.051791], [2.231577, 49.051739], [2.23261, 49.051251], [2.233079, 49.05102], [2.23384, 49.05044], [2.234523, 49.049545], [2.234868, 49.049368], [2.235544, 49.048958], [2.237073, 49.04824], [2.237417, 49.048152], [2.238232, 49.047609], [2.23865, 49.047108], [2.238785, 49.046299], [2.239394, 49.045764], [2.24036, 49.045176], [2.241517, 49.044644], [2.242685, 49.044283], [2.24494, 49.043479], [2.246573, 49.04312], [2.249319, 49.0424], [2.250611, 49.041995], [2.25315, 49.041417], [2.256445, 49.04052], [2.258272, 49.04001]]]]}}]}